FENGYUN 1C DEB          
1 37429U 99025EGX 17336.35752635  .00000179  00000-0  12960-3 0  9994
2 37429  98.8779  32.7387 0106747 347.9669  11.8952 14.05816857218545
